[{"CCSDS_OMM_VERS":"3.0","COMMENT":"GENERATED VIA SPACE-TRACK.ORG API","CREATION_DATE":"2026-03-28T16:36:19","ORIGINATOR":"18 SPCS","OBJECT_NAME":"COSMOS 2251 DEB","OBJECT_ID":"1993-036GU","CENTER_NAME":"EARTH","REF_FRAME":"TEME","TIME_SYSTEM":"UTC","MEAN_ELEMENT_THEORY":"SGP4","EPOCH":"2026-03-28T12:38:08.992608","MEAN_MOTION":"14.33317387","ECCENTRICITY":"0.00278000","INCLINATION":"74.0362","RA_OF_ASC_NODE":"143.6076","ARG_OF_PERICENTER":"192.6103","MEAN_ANOMALY":"278.1682","EPHEMERIS_TYPE":"0","CLASSIFICATION_TYPE":"U","NORAD_CAT_ID":"34009","ELEMENT_SET_NO":"999","REV_AT_EPOCH":"89461","BSTAR":"0.00011145000000","MEAN_MOTION_DOT":"0.00000282","MEAN_MOTION_DDOT":"0.0000000000000","SEMIMAJOR_AXIS":"7158.801","PERIOD":"100.466","APOAPSIS":"800.567","PERIAPSIS":"760.764","OBJECT_TYPE":"DEBRIS","RCS_SIZE":"SMALL","COUNTRY_CODE":"CIS","LAUNCH_DATE":"1993-06-16","SITE":"PKMTR","DECAY_DATE":null,"FILE":"5103563","GP_ID":"317420530","TLE_LINE0":"0 COSMOS 2251 DEB","TLE_LINE1":"1 34009U 93036GU  26087.52649297  .00000282  00000-0  11145-3 0  9991","TLE_LINE2":"2 34009  74.0362 143.6076 0027800 192.6103 278.1682 14.33317387894618"},{"CCSDS_OMM_VERS":"3.0","COMMENT":"GENERATED VIA SPACE-TRACK.ORG API","CREATION_DATE":"2026-03-28T16:36:19","ORIGINATOR":"18 SPCS","OBJECT_NAME":"COSMOS 2251 DEB","OBJECT_ID":"1993-036GV","CENTER_NAME":"EARTH","REF_FRAME":"TEME","TIME_SYSTEM":"UTC","MEAN_ELEMENT_THEORY":"SGP4","EPOCH":"2026-03-28T08:18:13.118688","MEAN_MOTION":"15.56225443","ECCENTRICITY":"0.00153780","INCLINATION":"73.9840","RA_OF_ASC_NODE":"57.0861","ARG_OF_PERICENTER":"197.8150","MEAN_ANOMALY":"162.2529","EPHEMERIS_TYPE":"0","CLASSIFICATION_TYPE":"U","NORAD_CAT_ID":"34010","ELEMENT_SET_NO":"999","REV_AT_EPOCH":"90903","BSTAR":"0.00788570000000","MEAN_MOTION_DOT":"0.00598822","MEAN_MOTION_DDOT":"0.0000000000000","SEMIMAJOR_AXIS":"6776.730","PERIOD":"92.532","APOAPSIS":"409.016","PERIAPSIS":"388.174","OBJECT_TYPE":"DEBRIS","RCS_SIZE":"SMALL","COUNTRY_CODE":"CIS","LAUNCH_DATE":"1993-06-16","SITE":"PKMTR","DECAY_DATE":null,"FILE":"5103563","GP_ID":"317421030","TLE_LINE0":"0 COSMOS 2251 DEB","TLE_LINE1":"1 34010U 93036GV  26087.34598517  .00598822  00000-0  78857-2 0  9995","TLE_LINE2":"2 34010  73.9840  57.0861 0015378 197.8150 162.2529 15.56225443909038"},{"CCSDS_OMM_VERS":"3.0","COMMENT":"GENERATED VIA SPACE-TRACK.ORG API","CREATION_DATE":"2026-03-28T11:26:42","ORIGINATOR":"18 SPCS","OBJECT_NAME":"COSMOS 2251 DEB","OBJECT_ID":"1993-036GW","CENTER_NAME":"EARTH","REF_FRAME":"TEME","TIME_SYSTEM":"UTC","MEAN_ELEMENT_THEORY":"SGP4","EPOCH":"2026-03-28T04:52:50.167488","MEAN_MOTION":"14.42423400","ECCENTRICITY":"0.00383005","INCLINATION":"74.0132","RA_OF_ASC_NODE":"134.3469","ARG_OF_PERICENTER":"199.2563","MEAN_ANOMALY":"160.7148","EPHEMERIS_TYPE":"0","CLASSIFICATION_TYPE":"U","NORAD_CAT_ID":"34011","ELEMENT_SET_NO":"999","REV_AT_EPOCH":"89436","BSTAR":"0.00060928857000","MEAN_MOTION_DOT":"0.00002008","MEAN_MOTION_DDOT":"0.0000000000000","SEMIMAJOR_AXIS":"7128.640","PERIOD":"99.832","APOAPSIS":"777.808","PERIAPSIS":"723.202","OBJECT_TYPE":"DEBRIS","RCS_SIZE":"SMALL","COUNTRY_CODE":"CIS","LAUNCH_DATE":"1993-06-16","SITE":"PKMTR","DECAY_DATE":null,"FILE":"5103506","GP_ID":"317397273","TLE_LINE0":"0 COSMOS 2251 DEB","TLE_LINE1":"1 34011U 93036GW  26087.20335842  .00002008  00000-0  60929-3 0  9999","TLE_LINE2":"2 34011  74.0132 134.3469 0038300 199.2563 160.7148 14.42423400894368"},{"CCSDS_OMM_VERS":"3.0","COMMENT":"GENERATED VIA SPACE-TRACK.ORG API","CREATION_DATE":"2023-04-01T14:26:12","ORIGINATOR":"18 SPCS","OBJECT_NAME":"COSMOS 2251 DEB","OBJECT_ID":"1993-036GX","CENTER_NAME":"EARTH","REF_FRAME":"TEME","TIME_SYSTEM":"UTC","MEAN_ELEMENT_THEORY":"SGP4","EPOCH":"2023-04-01T11:22:55.543872","MEAN_MOTION":"15.87892056","ECCENTRICITY":"0.00088940","INCLINATION":"73.9589","RA_OF_ASC_NODE":"114.7250","ARG_OF_PERICENTER":"281.6775","MEAN_ANOMALY":"78.3459","EPHEMERIS_TYPE":"0","CLASSIFICATION_TYPE":"U","NORAD_CAT_ID":"34012","ELEMENT_SET_NO":"999","REV_AT_EPOCH":"74553","BSTAR":"0.04149300000000","MEAN_MOTION_DOT":"0.08574569","MEAN_MOTION_DDOT":"0.1107900000000","SEMIMAJOR_AXIS":"6686.331","PERIOD":"90.686","APOAPSIS":"314.143","PERIAPSIS":"302.249","OBJECT_TYPE":"DEBRIS","RCS_SIZE":"SMALL","COUNTRY_CODE":"CIS","LAUNCH_DATE":"1993-06-16","SITE":"PKMTR","DECAY_DATE":"2023-04-05","FILE":"3876967","GP_ID":"229215573","TLE_LINE0":"0 COSMOS 2251 DEB","TLE_LINE1":"1 34012U 93036GX  23091.47425398  .08574569  11079+0  41493-1 0  9991","TLE_LINE2":"2 34012  73.9589 114.7250 0008894 281.6775  78.3459 15.87892056745539"},{"CCSDS_OMM_VERS":"3.0","COMMENT":"GENERATED VIA SPACE-TRACK.ORG API","CREATION_DATE":"2023-05-07T04:56:12","ORIGINATOR":"18 SPCS","OBJECT_NAME":"COSMOS 2251 DEB","OBJECT_ID":"1993-036GY","CENTER_NAME":"EARTH","REF_FRAME":"TEME","TIME_SYSTEM":"UTC","MEAN_ELEMENT_THEORY":"SGP4","EPOCH":"2023-05-06T04:29:39.365952","MEAN_MOTION":"15.81727841","ECCENTRICITY":"0.00151870","INCLINATION":"73.9806","RA_OF_ASC_NODE":"145.4080","ARG_OF_PERICENTER":"259.7305","MEAN_ANOMALY":"100.2212","EPHEMERIS_TYPE":"0","CLASSIFICATION_TYPE":"U","NORAD_CAT_ID":"34013","ELEMENT_SET_NO":"999","REV_AT_EPOCH":"75912","BSTAR":"0.01471300000000","MEAN_MOTION_DOT":"0.03544765","MEAN_MOTION_DDOT":"0.0000000000000","SEMIMAJOR_AXIS":"6703.691","PERIOD":"91.040","APOAPSIS":"335.737","PERIAPSIS":"315.375","OBJECT_TYPE":"DEBRIS","RCS_SIZE":"SMALL","COUNTRY_CODE":"CIS","LAUNCH_DATE":"1993-06-16","SITE":"PKMTR","DECAY_DATE":"2023-05-09","FILE":"3902317","GP_ID":"231356067","TLE_LINE0":"0 COSMOS 2251 DEB","TLE_LINE1":"1 34013U 93036GY  23126.18726118  .03544765  00000-0  14713-1 0  9991","TLE_LINE2":"2 34013  73.9806 145.4080 0015187 259.7305 100.2212 15.81727841759127"},{"CCSDS_OMM_VERS":"3.0","COMMENT":"GENERATED VIA SPACE-TRACK.ORG API","CREATION_DATE":"2026-03-28T16:36:19","ORIGINATOR":"18 SPCS","OBJECT_NAME":"COSMOS 2251 DEB","OBJECT_ID":"1993-036GZ","CENTER_NAME":"EARTH","REF_FRAME":"TEME","TIME_SYSTEM":"UTC","MEAN_ELEMENT_THEORY":"SGP4","EPOCH":"2026-03-28T08:12:31.398048","MEAN_MOTION":"14.74550799","ECCENTRICITY":"0.00391810","INCLINATION":"74.0149","RA_OF_ASC_NODE":"74.4701","ARG_OF_PERICENTER":"192.6889","MEAN_ANOMALY":"290.5274","EPHEMERIS_TYPE":"0","CLASSIFICATION_TYPE":"U","NORAD_CAT_ID":"34014","ELEMENT_SET_NO":"999","REV_AT_EPOCH":"90859","BSTAR":"0.00079656000000","MEAN_MOTION_DOT":"0.00005339","MEAN_MOTION_DDOT":"0.0000000000000","SEMIMAJOR_AXIS":"7024.715","PERIOD":"97.657","APOAPSIS":"674.103","PERIAPSIS":"619.056","OBJECT_TYPE":"DEBRIS","RCS_SIZE":"SMALL","COUNTRY_CODE":"CIS","LAUNCH_DATE":"1993-06-16","SITE":"PKMTR","DECAY_DATE":null,"FILE":"5103563","GP_ID":"317420531","TLE_LINE0":"0 COSMOS 2251 DEB","TLE_LINE1":"1 34014U 93036GZ  26087.34203007  .00005339  00000-0  79656-3 0  9991","TLE_LINE2":"2 34014  74.0149  74.4701 0039181 192.6889 290.5274 14.74550799908598"},{"CCSDS_OMM_VERS":"3.0","COMMENT":"GENERATED VIA SPACE-TRACK.ORG API","CREATION_DATE":"2026-03-28T16:36:19","ORIGINATOR":"18 SPCS","OBJECT_NAME":"COSMOS 2251 DEB","OBJECT_ID":"1993-036HA","CENTER_NAME":"EARTH","REF_FRAME":"TEME","TIME_SYSTEM":"UTC","MEAN_ELEMENT_THEORY":"SGP4","EPOCH":"2026-03-28T09:23:10.773024","MEAN_MOTION":"14.61100843","ECCENTRICITY":"0.00191470","INCLINATION":"74.0248","RA_OF_ASC_NODE":"317.4506","ARG_OF_PERICENTER":"28.6130","MEAN_ANOMALY":"144.2107","EPHEMERIS_TYPE":"0","CLASSIFICATION_TYPE":"U","NORAD_CAT_ID":"34015","ELEMENT_SET_NO":"999","REV_AT_EPOCH":"90073","BSTAR":"0.00052866000000","MEAN_MOTION_DOT":"0.00002576","MEAN_MOTION_DDOT":"0.0000000000000","SEMIMAJOR_AXIS":"7067.759","PERIOD":"98.556","APOAPSIS":"703.156","PERIAPSIS":"676.091","OBJECT_TYPE":"DEBRIS","RCS_SIZE":"SMALL","COUNTRY_CODE":"CIS","LAUNCH_DATE":"1993-06-16","SITE":"PKMTR","DECAY_DATE":null,"FILE":"5103563","GP_ID":"317421031","TLE_LINE0":"0 COSMOS 2251 DEB","TLE_LINE1":"1 34015U 93036HA  26087.39109691  .00002576  00000-0  52866-3 0  9995","TLE_LINE2":"2 34015  74.0248 317.4506 0019147  28.6130 144.2107 14.61100843900734"},{"CCSDS_OMM_VERS":"3.0","COMMENT":"GENERATED VIA SPACE-TRACK.ORG API","CREATION_DATE":"2013-09-15T09:13:16","ORIGINATOR":"18 SPCS","OBJECT_NAME":"COSMOS 2251 DEB","OBJECT_ID":"1993-036HB","CENTER_NAME":"EARTH","REF_FRAME":"TEME","TIME_SYSTEM":"UTC","MEAN_ELEMENT_THEORY":"SGP4","EPOCH":"2013-09-15T10:34:48.279647","MEAN_MOTION":"16.25520081","ECCENTRICITY":"0.00066150","INCLINATION":"73.9149","RA_OF_ASC_NODE":"271.1595","ARG_OF_PERICENTER":"221.7518","MEAN_ANOMALY":"258.1031","EPHEMERIS_TYPE":"0","CLASSIFICATION_TYPE":"U","NORAD_CAT_ID":"34016","ELEMENT_SET_NO":"999","REV_AT_EPOCH":"24888","BSTAR":"0.01962000000000","MEAN_MOTION_DOT":"0.58358983","MEAN_MOTION_DDOT":"0.0000022427000","SEMIMAJOR_AXIS":"6582.747","PERIOD":"88.587","APOAPSIS":"208.967","PERIAPSIS":"200.258","OBJECT_TYPE":"DEBRIS","RCS_SIZE":"SMALL","COUNTRY_CODE":"CIS","LAUNCH_DATE":"1993-06-16","SITE":"PKMTR","DECAY_DATE":"2013-09-15","FILE":"1547614","GP_ID":"93840279","TLE_LINE0":"0 COSMOS 2251 DEB","TLE_LINE1":"1 34016U 93036HB  13258.44083657  .58358983  22427-5  19620-1 0  9991","TLE_LINE2":"2 34016 073.9149 271.1595 0006615 221.7518 258.1031 16.25520081248883"}]